{
    "links": {
        "self": "http://www.neowsapp.com/rest/v1/neo/3775709?api_key=iIulBulltgU6a56xZRHN4H3l9WmuAYTsLGpBGhQ2"
    },
    "id": "3775709",
    "neo_reference_id": "3775709",
    "name": "(2017 MA1)",
    "designation": "2017 MA1",
    "nasa_jpl_url": "http://ssd.jpl.nasa.gov/sbdb.cgi?sstr=3775709",
    "absolute_magnitude_h": 21.7,
    "estimated_diameter": {
        "kilometers": {
            "estimated_diameter_min": 0.1214940408,
            "estimated_diameter_max": 0.2716689341
        },
        "meters": {
            "estimated_diameter_min": 121.4940407996,
            "estimated_diameter_max": 271.6689340891
        },
        "miles": {
            "estimated_diameter_min": 0.0754928736,
            "estimated_diameter_max": 0.1688071972
        },
        "feet": {
            "estimated_diameter_min": 398.6025088171,
            "estimated_diameter_max": 891.3023057169
        }
    },
    "is_potentially_hazardous_asteroid": true,
    "close_approach_data": [
        {
            "close_approach_date": "2017-06-16",
            "close_approach_date_full": "2017-Jun-16 03:49",
            "epoch_date_close_approach": 1497584940000,
            "relative_velocity": {
                "kilometers_per_second": "30.6788070642",
                "kilometers_per_hour": "110443.7054312708",
                "miles_per_hour": "68625.4235220027"
            },
            "miss_distance": {
                "astronomical": "0.0871838215",
                "lunar": "33.9145065635",
                "kilometers": "13042513.994860205",
                "miles": "8104242.397692629"
            },
            "orbiting_body": "Earth"
        }
    ],
    "orbital_data": {
        "orbit_id": "2",
        "orbit_determination_date": "2017-06-27 06:18:02",
        "first_observation_date": "2017-06-19",
        "last_observation_date": "2017-06-27",
        "data_arc_in_days": 8,
        "observations_used": 85,
        "orbit_uncertainty": "9",
        "minimum_orbit_intersection": ".0314101",
        "jupiter_tisserand_invariant": "2.661",
        "epoch_osculation": "2457925.5",
        "eccentricity": ".8990681705951765",
        "semi_major_axis": "2.509340991118751",
        "inclination": "15.09572461882542",
        "ascending_node_longitude": "94.97062865655806",
        "orbital_period": "1451.904156139485",
        "perihelion_distance": ".2532723768341284",
        "perihelion_argument": "47.23655547571629",
        "aphelion_distance": "4.765409605403373",
        "perihelion_time": "2457878.978257318496",
        "mean_anomaly": "11.53507777667142",
        "mean_motion": ".2479502510394458",
        "equinox": "J2000",
        "orbit_class": {
            "orbit_class_type": "APO",
            "orbit_class_description": "Near-Earth asteroid orbits which cross the Earth’s orbit similar to that of 1862 Apollo",
            "orbit_class_range": "a (semi-major axis) > 1.0 AU; q (perihelion) < 1.017 AU"
        }
    },
    "is_sentry_object": false
}